COSMOS 1823 DEB
1 18758U 87020AK  18152.36581201 -.00000003 +00000-0 +10616-3 0  9990
2 18758 073.6230 149.2898 0054132 217.6080 209.7600 12.37838702374641
SL-12 DEB
1 18764U 85042G   18152.92942550 +.00000023 +00000-0 +32779-4 0  9995
2 18764 066.5931 020.5790 0103078 274.9579 186.1588 14.44892294579323
SL-12 DEB
1 18765U 85042H   18152.92770589 +.00000588 +00000-0 +19184-3 0  9997
2 18765 066.5815 094.3505 0007695 309.8465 050.1962 14.45495694589510
SL-12 DEB
1 18766U 85042J   18152.68839590 +.00000438 +00000-0 +20648-3 0  9990
2 18766 066.5698 230.4222 0048046 120.1265 036.9623 14.28451645568978
SL-12 DEB
1 18767U 85042K   18153.04657444  .00000280  00000-0  23542-3 0  9999
2 18767  66.5900  17.1155 0144504  37.8790 323.2351 13.97020859540067
DELTA 1 DEB
1 18775U 78026HH  18151.31670406  .00000023  00000-0  48344-4 0  9996
2 18775  99.4287 340.1602 0065881  93.8367  29.8829 13.97301419505825
DELTA 1 DEB
1 18779U 78026HJ  18152.68811997 +.00000580 +00000-0 +29787-3 0  9990
2 18779 098.9654 059.0004 0086064 310.2795 079.2003 14.17460522575431
OPS 4682 DEB
1 18783U 65027AK  18148.24868323  .00000791  00000-0  26187-2 0  9998
2 18783  90.2928 314.6866 0029532  70.6655  51.9408 12.99474087434787
OPS 4682 DEB
1 18784U 65027AL  18152.33937220 -.00000439 +00000-0 -15637-2 0  9996
2 18784 090.3091 289.8578 0039941 276.6601 111.5991 12.96010139421739
THORAD AGENA D DEB
1 18785U 70025PQ  18152.85603326 -.00000018  00000-0  38894-4 0  9999
2 18785 100.0457 278.3748 0003345  76.0882  55.4171 13.59756261520110
COSMOS 1909
1 18788U 88002A   18153.05451935  .00000010  00000-0 -46553-5 0  9990
2 18788  82.6104 345.0343 0002037 115.1333  47.5715 12.62791609400327
COSMOS 1910
1 18789U 88002B   18152.96935118 +.00000014 +00000-0 +20277-4 0  9997
2 18789 082.6005 326.1678 0004874 039.6690 115.6348 12.63554459400911
COSMOS 1911
1 18790U 88002C   18152.96841359 +.00000016 +00000-0 +30033-4 0  9995
2 18790 082.6069 322.1031 0007469 342.6832 129.9652 12.64314313401775
COSMOS 1912
1 18791U 88002D   18152.90683288 +.00000016 +00000-0 +29655-4 0  9993
2 18791 082.6075 314.3405 0010353 317.7726 159.3067 12.64991055402505
COSMOS 1913
1 18792U 88002E   18152.90546076 +.00000016 +00000-0 +31509-4 0  9998
2 18792 082.5985 297.1890 0013178 287.2108 187.4167 12.65646352403427
COSMOS 1914
1 18793U 88002F   18152.90895185 +.00000012 +00000-0 +70878-5 0  9996
2 18793 082.6058 294.0671 0017004 239.7751 297.7613 12.66372796403993
SL-14 R/B
1 18794U 88002G   18153.18076459  .00000039  00000-0  17307-3 0  9998
2 18794  82.6033  67.8731 0037075 209.2606 306.8876 12.55556051392414
COSMOS 1823 DEB
1 18800U 87020AL  18152.53480505 +.00000048 +00000-0 +49657-3 0  9997
2 18800 073.5931 092.3772 0052149 232.2772 245.5905 12.38794794376946
COSMOS 1823 DEB
1 18801U 87020AM  18152.96925821 +.00000108 +00000-0 +59811-3 0  9990
2 18801 073.1286 117.0731 0129372 300.2759 117.3450 12.74544719413246
COSMOS 1823 DEB
1 18802U 87020AN  18152.64851562 +.00000091 +00000-0 +90038-3 0  9993
2 18802 073.5913 358.9304 0104977 148.8959 271.1855 12.30149136365736
COSMOS 1823 DEB
1 18803U 87020AP  18152.96763772 -.00000002 +00000-0 +13373-3 0  9994
2 18803 073.4467 161.5065 0085178 243.2081 140.8602 12.31807762368618
COSMOS 1823 DEB
1 18804U 87020AQ  18152.08299056 -.00000001 +00000-0 +12253-3 0  9992
2 18804 073.6053 021.5145 0027024 128.2002 024.1419 12.41458258379252
COSMOS 1823 DEB
1 18805U 87020AR  18153.23808696 -.00000003  00000-0  10056-3 0  9998
2 18805  73.7096  70.4635 0020513 308.9296 209.8875 12.43170987379863
COSMOS 1823 DEB
1 18806U 87020AS  18153.05579205  .00000050  00000-0  53597-3 0  9998
2 18806  73.4798 135.7368 0085758 145.4418 288.2392 12.34733838370462
COSMOS 1823 DEB
1 18807U 87020AT  18152.83222545 +.00000888 +00000-0 +11451-2 0  9997
2 18807 073.7531 297.5897 0270379 045.9464 066.3176 13.49715016095728
SL-12 DEB
1 18819U 85042L   18152.68518799  .00002307  00000-0  32369-3 0  9994
2 18819  66.5599 247.7317 0026044 233.3277 275.1425 14.79272909593725
METEOR 2-17
1 18820U 88005A   18152.95041333 +.00000017 +00000-0 +16107-5 0  9993
2 18820 082.5406 143.2910 0017832 063.6123 316.0907 13.85408187533460
SL-14 R/B
1 18821U 88005B   18153.11527078  .00000003  00000-0 -10652-4 0  9992
2 18821  82.5406 143.6283 0015678  72.0158 288.2710 13.85110882533729
DMSP 5D-2 F9 (USA 29)
1 18822U 88006A   18152.68813685 +.00000024 +00000-0 +27609-4 0  9999
2 18822 098.5695 030.1141 0007518 078.2097 281.9927 14.27194453577163
COSMOS 375 DEB
1 18866U 70091AV  18152.25742309 +.00000338 +00000-0 +13277-3 0  9992
2 18866 062.6662 059.8189 0817221 039.2086 326.5303 13.33074860322484
DELTA 1 DEB
1 18870U 73086HA  18151.52774984 -.00000009 +00000-0 +32179-3 0  9995
2 18870 101.7689 006.6174 0353942 174.5470 261.3405 11.93509506232250
CS 3A
1 18877U 88012A   18152.34306156 -.00000095 +00000-0 +00000-0 0  9990
2 18877 015.5084 015.8524 0010979 276.5022 294.6802 00.98135872098833
COSMOS 1922
1 18881U 88013A   18152.73325725 +.00000755 +00000-0 +00000-0 0  9994
2 18881 068.8315 214.2629 5330415 120.9934 302.0025 02.00394821221617
SL-6 R/B(2)
1 18883U 88013C   18152.94441544 -.00000486 +00000-0 +00000-0 0  9999
2 18883 068.3234 143.1593 5441797 092.6467 341.7896 02.04048108225344
COSMOS 1275 DEB
1 18902U 81053MB  18153.07422250  .00000905  00000-0  37258-3 0  9999
2 18902  82.9509 174.7743 0007188 356.9659   3.1481 14.25976833287838
LEASAT 1 DEB *
1 18904U 84113F   18152.93943131  .00007469  00000-0  11491-2 0  9993
2 18904  26.6639  63.5041 4191568 163.6903 215.5681  7.00363039580560
DELTA 1 DEB
1 18906U 73086HB  18152.72641021 -.00000028 +00000-0 +12024-3 0  9991
2 18906 102.1906 237.0867 0088731 258.8518 271.6942 12.55846873403302
COSMOS 886 DEB
1 18907U 76126BY  18152.82340291 +.00000103 +00000-0 +48705-4 0  9995
2 18907 065.8178 299.6936 0913163 284.6312 065.5294 13.21988168458718
THOR ABLESTAR DEB
1 18908U 61015LY  18152.91527999 +.00000695 +00000-0 +17251-3 0  9996
2 18908 065.7271 339.4744 0103428 113.6997 247.4999 14.55656605608612
COSMOS 1823 DEB
1 18910U 87020AU  18152.55857115 +.00000082 +00000-0 +67337-3 0  9999
2 18910 073.6772 319.7535 0009948 259.3487 171.7680 12.47690488384299
DIAMANT DEB *
1 18911U 67014M   18152.96926811  .00012903  00000-0  80428-3 0  9997
2 18911  38.7542   7.7342 0131328 188.1780 171.6849 15.02172592576250
STTW-2
1 18922U 88014A   18152.07215381 -.00000246  00000-0  00000+0 0  9999
2 18922  15.1478   4.5345 0003529  59.6908 300.3197  1.00277698110653
COSMOS 1924
1 18937U 88016A   18152.84367988 +.00000004 +00000-0 +13722-3 0  9993
2 18937 074.0076 038.8960 0034185 080.7410 347.5023 12.44579013373215
COSMOS 1925
1 18938U 88016B   18152.91659443 -.00000025 +00000-0 -62061-4 0  9998
2 18938 074.0050 338.2182 0023851 026.6564 078.3026 12.46804576375679
COSMOS 1926
1 18939U 88016C   18152.81220972 -.00000012 +00000-0 +24921-4 0  9997
2 18939 074.0054 283.6109 0012519 317.6803 151.9576 12.48811770377939
COSMOS 1927
1 18940U 88016D   18152.72981855 +.00000008 +00000-0 +15455-3 0  9998
2 18940 074.0054 227.4353 0008017 322.2006 204.7205 12.50873396380208
COSMOS 1928
1 18941U 88016E   18152.67809667 -.00000019 +00000-0 -19419-4 0  9992
2 18941 074.0025 173.2792 0011203 329.7797 146.0731 12.52846409288961
COSMOS 1929
1 18942U 88016F   18152.92959309 -.00000023 +00000-0 -38709-4 0  9998
2 18942 074.0031 120.3590 0020830 286.7535 135.2309 12.54759250384457
COSMOS 1930
1 18943U 88016G   18152.93806142 -.00000006 +00000-0 +63283-4 0  9991
2 18943 074.0072 069.6924 0030006 241.6698 188.9402 12.56591124386463
COSMOS 1931
1 18944U 88016H   18152.82405020 -.00000011 +00000-0 +30452-4 0  9998
2 18944 074.0060 016.4250 0040371 173.4751 265.1512 12.58520519388577
SL-8 R/B
1 18945U 88016J   18152.71952892 -.00000028 +00000-0 -11293-3 0  9991
2 18945 074.0079 232.5965 0140409 335.1349 184.8110 12.23997964350489
MOLNIYA 1-71
1 18946U 88017A   18152.56888219 +.00000361 +00000-0 +42869-1 0  9996
2 18946 063.8126 289.7758 7008295 266.4524 109.8441 02.00632418221426
SL-6 R/B(2)
1 18949U 88017D   18152.41697326 -.00000117 +00000-0 +85556-1 0  9990
2 18949 064.2328 232.4450 6711716 269.2185 174.9930 02.10113341211148
SPACENET 3R
1 18951U 88018A   18152.49618669 -.00000327  00000-0  00000+0 0  9997
2 18951  13.8818  23.4490 0002565 264.7579 286.4681  0.99668037 95338
TELECOM 1C
1 18952U 88018B   18152.77752392 -.00000089  00000-0  00000+0 0  9996
2 18952  15.7158  13.4087 0099242  77.8998 118.4598  0.97955898 86663
ARIANE 3 R/B
1 18953U 88018C   18151.69152109 -.00000008  00000-0  20468-3 0  9992
2 18953   6.9421  68.4900 7144203 207.2452  82.2517  2.39356025254540
COSMOS 1932
1 18957U 88019A   18152.91145264 -.00000096 +00000-0 -82400-5 0  9991
2 18957 065.0437 112.7387 0038048 164.2384 195.9868 13.79675142523918
COSMOS 1933
1 18958U 88020A   18152.91141154 +.00000060 +00000-0 +23024-5 0  9994
2 18958 082.5280 126.3413 0011934 164.4401 195.7194 15.03445170622901
SL-14 R/B
1 18959U 88020B   18152.92027755 +.00000069 +00000-0 +53907-5 0  9998
2 18959 082.5366 304.0043 0018290 066.0558 294.2570 14.83380991611348
IRS 1A
1 18960U 88021A   18152.81591515 -.00000075  00000-0 -21221-4 0  9991
2 18960  99.2150 215.7453 0014020 356.4593 111.3058 13.96760877443353
SL-3 R/B
1 18961U 88021B   18152.96260755 -.00000235 +00000-0 -12510-3 0  9995
2 18961 099.3088 173.2630 0054306 350.4532 066.5540 14.00657143544387
WESTFORD NEEDLES
1 18962U 63014DN  18152.48505619 +.00000001 +00000-0 +00000-0 0  9996
2 18962 086.9744 172.3843 0885155 246.7805 103.7499 08.73324976970219
OPS 4682 DEB
1 18964U 65027AM  18153.20364980 -.00000094  00000-0 -35124-3 0  9991
2 18964  90.3047 285.6412 0030559 262.1339 215.9003 12.96432126474808
OPS 4682 DEB
1 18965U 65027AN  18150.70896178 +.00000369 +00000-0 +12548-2 0  9990
2 18965 090.2999 312.9091 0042958 268.5383 221.1416 12.96873159569117
